BEIDOU-2 IGSO-1 (C06)   
1 36828U 10036A   24100.64153125 -.00000092  00000+0  00000+0 0  9991
2 36828  54.2449 170.1909 0040198 199.2573 164.0116  1.00246534 50203
BEIDOU-2 G4 (C04)       
1 37210U 10057A   24101.51314830 -.00000119  00000+0  00000+0 0  9999
2 37210   1.6842  67.7217 0004353 205.9447 270.2637  1.00272740 49285
BEIDOU-2 IGSO-2 (C07)   
1 37256U 10068A   24100.89098909 -.00000211  00000+0  00000+0 0  9990
2 37256  49.0050 281.6451 0032557 208.6194 137.3480  1.00271667 48785
BEIDOU-2 IGSO-3 (C08)   
1 37384U 11013A   24101.55204853 -.00000204  00000+0  00000+0 0  9996
2 37384  61.2609  47.7617 0025668 180.9831 278.1743  1.00275326 47672
BEIDOU-2 IGSO-4 (C09)   
1 37763U 11038A   24100.70160214 -.00000062  00000+0  00000+0 0  9994
2 37763  54.5514 172.7827 0123045 228.1257 146.3508  1.00273188 46645
BEIDOU-2 IGSO-5 (C10)   
1 37948U 11073A   24100.96229919 -.00000159  00000+0  00000+0 0  9991
2 37948  49.1359 281.3265 0094718 219.0474 139.6282  1.00266399 45395
BEIDOU-2 G5 (C05)       
1 38091U 12008A   24101.52798897  .00000051  00000+0  00000+0 0  9999
2 38091   1.9123  70.2371 0009636 259.2762 118.4600  1.00272632 44489
BEIDOU-2 M3 (C11)       
1 38250U 12018A   24101.27644852 -.00000083  00000+0  00000+0 0  9996
2 38250  56.3812 331.6002 0021131 267.4854  92.3174  1.86231209 81438
BEIDOU-2 M4 (C12)       
1 38251U 12018B   24101.20693861 -.00000082  00000+0  00000+0 0  9993
2 38251  56.2895 330.8793 0012133 273.7094  86.1963  1.86231966 81432
BEIDOU-2 M6 (C14)       
1 38775U 12050B   24100.37939933  .00000010  00000+0  00000+0 0  9990
2 38775  55.8606  89.4611 0014757 330.2333  29.6772  1.86231040 78432
BEIDOU-2 G6 (C02)       
1 38953U 12059A   24101.53303627 -.00000180  00000+0  00000+0 0  9990
2 38953   2.3879  80.9193 0010984 305.5848  88.5875  1.00268228 42055
BEIDOU-3S IGSO-1S (C31) 
1 40549U 15019A   24101.53503779 -.00000171  00000+0  00000+0 0  9993
2 40549  50.6963 304.9832 0036222 191.5525 350.0597  1.00263597 33069
BEIDOU-3S M2S (C58)     
1 40748U 15037A   24100.33387986 -.00000076  00000+0  00000+0 0  9995
2 40748  55.5238 329.3722 0008200 263.3771  96.5753  1.86233062 59246
BEIDOU-3S M1S (C57)     
1 40749U 15037B   24101.14113952 -.00000081  00000+0  00000+0 0  9992
2 40749  55.5262 329.3316 0005691 355.9137   4.1247  1.86232893 59253
BEIDOU-3S IGSO-2S (C56) 
1 40938U 15053A   24100.84689708 -.00000155  00000+0  00000+0 0  9995
2 40938  50.4666 268.1959 0050082 187.3974 144.3308  1.00277968 31341
BEIDOU-2 IGSO-6 (C13)   
1 41434U 16021A   24101.55737606 -.00000176  00000+0  00000+0 0  9996
2 41434  59.0847  46.0306 0048957 225.2397 224.1822  1.00283430 29477
BEIDOU-2 G7 (C03)       
1 41586U 16037A   24100.88889815 -.00000361  00000+0  00000+0 0  9992
2 41586   1.7434  68.7178 0009049 322.6261 237.7862  1.00273920 28780
BEIDOU-3 M1 (C19)       
1 43001U 17069A   24101.21941622  .00000001  00000+0  00000+0 0  9995
2 43001  56.0118  89.5202 0012588 300.9256  58.9405  1.86231301 43740
BEIDOU-3 M2 (C20)       
1 43002U 17069B   24100.61954976  .00000007  00000+0  00000+0 0  9991
2 43002  56.0106  89.5766 0010252 318.7935  41.1222  1.86230990 43722
BEIDOU-3 M7 (C27)       
1 43107U 18003A   24100.90625718 -.00000082  00000+0  00000+0 0  9991
2 43107  54.9811 329.9735 0005083  61.2141 298.8805  1.86232316 42495
BEIDOU-3 M8 (C28)       
1 43108U 18003B   24100.30917663 -.00000078  00000+0  00000+0 0  9994
2 43108  54.9741 329.9799 0002725 279.8630  80.1517  1.86230778 42489
BEIDOU-3 M4 (C22)       
1 43207U 18018A   24100.21357797  .00000012  00000+0  00000+0 0  9993
2 43207  55.9697  89.6453 0007232 336.5746  23.3883  1.86231192 41861
BEIDOU-3 M3 (C21)       
1 43208U 18018B   24099.20624798  .00000026  00000+0  00000+0 0  9993
2 43208  55.9684  89.6833 0010297 309.6024  50.3098  1.86231178 41845
BEIDOU-3 M9 (C29)       
1 43245U 18029A   24101.03895092 -.00000080  00000+0  00000+0 0  9999
2 43245  54.8668 327.6828 0000864  12.7934 347.2502  1.86232395 41037
BEIDOU-3 M10 (C30)      
1 43246U 18029B   24100.96871577 -.00000080  00000+0  00000+0 0  9993
2 43246  54.8645 327.7137 0004865  13.9451 346.1101  1.86232721 41024
BEIDOU-2 IGSO-7 (C16)   
1 43539U 18057A   24100.64557333 -.00000109  00000+0  00000+0 0  9997
2 43539  55.1342 169.9671 0073579 232.4639 141.4760  1.00273589 21129
BEIDOU-3 M5 (C23)       
1 43581U 18062A   24099.57977076  .00000003  00000+0  00000+0 0  9991
2 43581  54.1414 209.5048 0002600 278.9856  80.9758  1.86228467 38746
BEIDOU-3 M6 (C24)       
1 43582U 18062B   24099.44593582  .00000001  00000+0  00000+0 0  9992
2 43582  54.1410 209.4989 0004863  29.8163 330.2013  1.86229227 38743
BEIDOU-3 M12 (C26)      
1 43602U 18067A   24100.45397258  .00000010  00000+0  00000+0 0  9996
2 43602  54.2306 208.1398 0007127  26.8220 333.2141  1.86231622 38240
BEIDOU-3 M11 (C25)      
1 43603U 18067B   24100.58787497  .00000011  00000+0  00000+0 0  9990
2 43603  54.2279 208.1004 0003898  18.5906 341.4239  1.86231467 38273
BEIDOU-3 M13 (C32)      
1 43622U 18072A   24099.47439863  .00000021  00000+0  00000+0 0  9994
2 43622  55.9398  89.2036 0009110 298.2474  61.6610  1.86231248 37761
BEIDOU-3 M14 (C33)      
1 43623U 18072B   24100.41374807  .00000009  00000+0  00000+0 0  9994
2 43623  55.9425  89.1652 0006757 317.0665  42.8746  1.86231272 37771
BEIDOU-3 M16 (C35)      
1 43647U 18078A   24100.03994988 -.00000074  00000+0  00000+0 0  9995
2 43647  54.7639 327.8219 0008176  18.5385 341.5365  1.86232181 37272
BEIDOU-3 M15 (C34)      
1 43648U 18078B   24100.16912282 -.00000075  00000+0  00000+0 0  9998
2 43648  54.7596 327.8206 0005259  28.2337 331.8395  1.86232056 37293
BEIDOU-3 G1 (C59)       
1 43683U 18085A   24101.54417517 -.00000283  00000+0  00000+0 0  9990
2 43683   2.0266 112.3109 0003365 340.2929  82.5748  1.00274632 20051
BEIDOU-3 M17 (C36)      
1 43706U 18093A   24101.39229563  .00000012  00000+0  00000+0 0  9999
2 43706  54.2239 209.3765 0007851 281.5869  78.3275  1.86228156 36661
BEIDOU-3 M18 (C37)      
1 43707U 18093B   24100.18425034  .00000007  00000+0  00000+0 0  9991
2 43707  54.2249 209.4093 0006206 315.7220  44.2232  1.86229582 36650
BEIDOU-3 IGSO-1 (C38)   
1 44204U 19023A   24101.48947799 -.00000233  00000+0  00000+0 0  9991
2 44204  57.5481  45.9305 0019439 215.2163 233.6267  1.00269141 18369
BEIDOU-2 G8 (C01)       
1 44231U 19027A   24101.49904347 -.00000254  00000+0  00000+0 0  9991
2 44231   1.7818  73.4233 0003099 181.4804 268.3898  1.00275728 18072
BEIDOU-3 IGSO-2 (C39)   
1 44337U 19035A   24100.60028256 -.00000106  00000+0  00000+0 0  9991
2 44337  55.1680 165.8699 0032959 207.2351 160.3596  1.00262184 17664
BEIDOU-3 M24 (C46)      
1 44542U 19061A   24099.71734474  .00000004  00000+0  00000+0 0  9999
2 44542  54.4516 209.7061 0007359   0.2686 359.7229  1.86231075 30909
BEIDOU-3 M23 (C45)      
1 44543U 19061B   24100.38591156  .00000008  00000+0  00000+0 0  9998
2 44543  54.4502 209.6524 0004178 347.5188  12.8842  1.86231367 30922
BEIDOU-3 IGSO-3 (C40)   
1 44709U 19073A   24099.92252236 -.00000182  00000+0  00000+0 0  9999
2 44709  56.1678 289.4529 0036468 179.5161 180.4434  1.00270664 16440
BEIDOU-3 M22 (C44)      
1 44793U 19078A   24100.10017607 -.00000075  00000+0  00000+0 0  9992
2 44793  54.6118 327.7604 0007183  25.2211 334.8587  1.86231984 29769
BEIDOU-3 M21 (C43)      
1 44794U 19078B   24100.23014511 -.00000076  00000+0  00000+0 0  9999
2 44794  54.5851 327.7333 0004960  21.2645 338.8002  1.86232462 29778
BEIDOU-3 M19 (C41)      
1 44864U 19090A   24101.21810750  .00000001  00000+0  00000+0 0  9996
2 44864  55.8755  89.3198 0019887 282.2966 213.2529  1.86231565 29360
BEIDOU-3 M20 (C42)      
1 44865U 19090B   24101.54853001 -.00000002  00000+0  00000+0 0  9991
2 44865  55.8776  89.3420 0017783 294.1583 152.6753  1.86231522 29359
BEIDOU-3 G2 (C60)       
1 45344U 20017A   24101.53225307 -.00000148  00000+0  00000+0 0  9997
2 45344   2.2378  26.8645 0001192 316.8604 127.1757  1.00271271 15272
BEIDOU-3 G3 (C61)       
1 45807U 20040A   24100.88889817 -.00000361  00000+0  00000+0 0  9993
2 45807   0.6747  32.1186 0006840 300.2154 296.7352  1.00265929 14063
BEIDOU-3 G4             
1 56564U 23066A   24101.11857191 -.00000121  00000+0  00000+0 0  9997
2 56564   2.2935 288.2119 0003572 190.7650 282.5639  1.00272300  3402
BEIDOU-3 M25            
1 58654U 23207A   24101.38666804 -.00000002  00000+0  00000+0 0  9992
2 58654  55.0578  89.3777 0005054 289.9328  70.0021  1.86232138  1988
BEIDOU-3 M26            
1 58655U 23207B   24101.18548899 -.00000001  00000+0  00000+0 0  9993
2 58655  55.0594  89.3700 0005662 275.6012  84.3246  1.86231737  1969
